[{"OBJECT_NAME":"STARLINK-34312","OBJECT_ID":"2025-142R","EPOCH":"2026-03-09T23:21:11.585664","MEAN_MOTION":14.98336997,"ECCENTRICITY":0.00023746,"INCLINATION":70.0006,"RA_OF_ASC_NODE":313.7209,"ARG_OF_PERICENTER":269.784,"MEAN_ANOMALY":90.3047,"EPHEMERIS_TYPE":0,"CLASSIFICATION_TYPE":"U","NORAD_CAT_ID":64711,"ELEMENT_SET_NO":999,"REV_AT_EPOCH":3969,"BSTAR":0.0002393619,"MEAN_MOTION_DOT":2.765e-5,"MEAN_MOTION_DDOT":0},{"OBJECT_NAME":"COSMOS 44","OBJECT_ID":"1964-053A","EPOCH":"2026-03-09T21:59:01.891968","MEAN_MOTION":14.65674855,"ECCENTRICITY":0.01500487,"INCLINATION":65.0577,"RA_OF_ASC_NODE":259.0656,"ARG_OF_PERICENTER":297.9455,"MEAN_ANOMALY":60.6525,"EPHEMERIS_TYPE":0,"CLASSIFICATION_TYPE":"U","NORAD_CAT_ID":876,"ELEMENT_SET_NO":999,"REV_AT_EPOCH":27412,"BSTAR":5.8309856e-5,"MEAN_MOTION_DOT":2.3e-6,"MEAN_MOTION_DDOT":0}]
